STARLINK-2185_new
1 17767C 21017AX  21326.13785157  .00006380  00000-0  42734-3 0  3267
2 17767  53.0562  53.1225 0001302  81.3999 356.3916 15.06401635    12
STARLINK-2185_old
1 27767C 21017AX  21325.13772611  .00007221  00000-0  48388-3 0  3252
2 27767  53.0559  57.6120 0001312  83.7522 327.3376 15.06385844    11
